start=new Date('2023-02-15T00:00:00.000Z').valueOf();
sats=[{"ECCENTRICITY":"0.00016020","ARG_OF_PERICENTER":"85.2180","ELEMENT_SET_NO":"999","BSTAR":"0.00008887900000","FILE":"3792084","SITE":"AFETR","RA_OF_ASC_NODE":"149.5908","GP_ID":"225430701","RCS_SIZE":"LARGE","MEAN_MOTION":"15.06408864","LAUNCH_DATE":"2020-03-18","MEAN_MOTION_DOT":"0.00001043","OBJECT_ID":"2020-019BM","NORAD_CAT_ID":"45419","EPOCH":"2023-02-14T18:44:33.590112","REV_AT_EPOCH":"16082","TLE_LINE2":"2 45419  53.0547 149.5908 0001602  85.2180 274.8992 15.06408864160828","SEMIMAJOR_AXIS":"6925.321","MEAN_ANOMALY":"274.8992","APOAPSIS":"548.296","EPHEMERIS_TYPE":"0","INCLINATION":"53.0547","TIME_SYSTEM":"UTC","PERIAPSIS":"546.077","COUNTRY_CODE":"US","MEAN_ELEMENT_THEORY":"SGP4","DECAY_DATE":null,"MEAN_MOTION_DDOT":"0.0000000000000","OBJECT_TYPE":"PAYLOAD","PERIOD":"95.592","CLASSIFICATION_TYPE":"U","TLE_LINE1":"1 45419U 20019BM  23045.78094433  .00001043  00000-0  88879-4 0  9999","CENTER_NAME":"EARTH","OBJECT_NAME":"STARLINK-1308","REF_FRAME":"TEME"},{"INCLINATION":"53.0529","EPHEMERIS_TYPE":"0","COUNTRY_CODE":"US","PERIAPSIS":"546.147","TIME_SYSTEM":"UTC","PERIOD":"95.592","OBJECT_TYPE":"PAYLOAD","MEAN_MOTION_DDOT":"0.0000000000000","DECAY_DATE":null,"MEAN_ELEMENT_THEORY":"SGP4","REF_FRAME":"TEME","OBJECT_NAME":"STARLINK-1329","CENTER_NAME":"EARTH","TLE_LINE1":"1 45531U 20025A   23045.81596886 -.00000659  00000-0 -25379-4 0  9994","CLASSIFICATION_TYPE":"U","FILE":"3792084","BSTAR":"-0.00002537900000","ELEMENT_SET_NO":"999","ARG_OF_PERICENTER":"89.0882","ECCENTRICITY":"0.00015560","LAUNCH_DATE":"2020-04-22","MEAN_MOTION":"15.06396471","RCS_SIZE":"LARGE","GP_ID":"225429720","RA_OF_ASC_NODE":"89.4447","SITE":"AFETR","NORAD_CAT_ID":"45531","EPOCH":"2023-02-14T19:34:59.709504","MEAN_MOTION_DOT":"-0.00000659","OBJECT_ID":"2020-025A","APOAPSIS":"548.302","MEAN_ANOMALY":"271.0285","SEMIMAJOR_AXIS":"6925.359","TLE_LINE2":"2 45531  53.0529  89.4447 0001556  89.0882 271.0285 15.06396471156450","REV_AT_EPOCH":"15645"},{"INCLINATION":"53.0528","EPHEMERIS_TYPE":"0","COUNTRY_CODE":"US","PERIAPSIS":"546.096","TIME_SYSTEM":"UTC","PERIOD":"95.592","MEAN_MOTION_DDOT":"0.0000000000000","OBJECT_TYPE":"PAYLOAD","DECAY_DATE":null,"MEAN_ELEMENT_THEORY":"SGP4","REF_FRAME":"TEME","OBJECT_NAME":"STARLINK-1338","CENTER_NAME":"EARTH","TLE_LINE1":"1 45532U 20025B   23045.56163893  .00003563  00000-0  25799-3 0  9995","CLASSIFICATION_TYPE":"U","FILE":"3791349","BSTAR":"0.00025799000000","ELEMENT_SET_NO":"999","ARG_OF_PERICENTER":"91.0998","ECCENTRICITY":"0.00016040","LAUNCH_DATE":"2020-04-22","MEAN_MOTION":"15.06402185","GP_ID":"225388610","RCS_SIZE":"LARGE","RA_OF_ASC_NODE":"90.5796","SITE":"AFETR","EPOCH":"2023-02-14T13:28:45.603552","NORAD_CAT_ID":"45532","MEAN_MOTION_DOT":"0.00003563","OBJECT_ID":"2020-025B","APOAPSIS":"548.318","MEAN_ANOMALY":"269.0175","SEMIMAJOR_AXIS":"6925.342","REV_AT_EPOCH":"15641","TLE_LINE2":"2 45532  53.0528  90.5796 0001604  91.0998 269.0175 15.06402185156416"},{"SEMIMAJOR_AXIS":"6925.328","APOAPSIS":"548.207","MEAN_ANOMALY":"268.8990","TLE_LINE2":"2 45534  53.0538  90.2308 0001464  91.2166 268.8990 15.06406613156421","REV_AT_EPOCH":"15642","NORAD_CAT_ID":"45534","EPOCH":"2023-02-14T15:20:15.188352","OBJECT_ID":"2020-025D","MEAN_MOTION_DOT":"0.00023937","MEAN_MOTION":"15.06406613","GP_ID":"225430213","RCS_SIZE":"LARGE","LAUNCH_DATE":"2020-04-22","SITE":"AFETR","RA_OF_ASC_NODE":"90.2308","BSTAR":"0.00162010000000","FILE":"3792084","ECCENTRICITY":"0.00014640","ELEMENT_SET_NO":"999","ARG_OF_PERICENTER":"91.2166","CENTER_NAME":"EARTH","OBJECT_NAME":"STARLINK-1341","REF_FRAME":"TEME","TLE_LINE1":"1 45534U 20025D   23045.63906468  .00023937  00000-0  16201-2 0  9992","CLASSIFICATION_TYPE":"U","MEAN_MOTION_DDOT":"0.0000000000000","OBJECT_TYPE":"PAYLOAD","PERIOD":"95.592","MEAN_ELEMENT_THEORY":"SGP4","DECAY_DATE":null,"TIME_SYSTEM":"UTC","COUNTRY_CODE":"US","PERIAPSIS":"546.179","INCLINATION":"53.0538","EPHEMERIS_TYPE":"0"},{"BSTAR":"0.00016585000000","FILE":"3791463","ECCENTRICITY":"0.00015750","ELEMENT_SET_NO":"999","ARG_OF_PERICENTER":"92.7485","MEAN_MOTION":"15.06410748","RCS_SIZE":"LARGE","GP_ID":"225397116","LAUNCH_DATE":"2020-04-22","RA_OF_ASC_NODE":"90.7541","SITE":"AFETR","NORAD_CAT_ID":"45535","EPOCH":"2023-02-14T12:35:40.661088","MEAN_MOTION_DOT":"0.00002190","OBJECT_ID":"2020-025E","SEMIMAJOR_AXIS":"6925.316","APOAPSIS":"548.271","MEAN_ANOMALY":"267.3684","TLE_LINE2":"2 45535  53.0524  90.7541 0001575  92.7485 267.3684 15.06410748155825","REV_AT_EPOCH":"15582","INCLINATION":"53.0524","EPHEMERIS_TYPE":"0","TIME_SYSTEM":"UTC","COUNTRY_CODE":"US","PERIAPSIS":"546.090","MEAN_MOTION_DDOT":"0.0000000000000","OBJECT_TYPE":"PAYLOAD","PERIOD":"95.591","MEAN_ELEMENT_THEORY":"SGP4","DECAY_DATE":null,"OBJECT_NAME":"STARLINK-1350","REF_FRAME":"TEME","CENTER_NAME":"EARTH","TLE_LINE1":"1 45535U 20025E   23045.52477617  .00002190  00000-0  16585-3 0  9994","CLASSIFICATION_TYPE":"U"},{"TLE_LINE2":"2 45536  53.0532  90.4296 0001328  87.9539 272.1602 15.06414653156410","REV_AT_EPOCH":"15641","MEAN_ANOMALY":"272.1602","APOAPSIS":"548.088","SEMIMAJOR_AXIS":"6925.304","MEAN_MOTION_DOT":"0.00034818","OBJECT_ID":"2020-025F","NORAD_CAT_ID":"45536","EPOCH":"2023-02-14T14:16:31.983168","SITE":"AFETR","RA_OF_ASC_NODE":"90.4296","LAUNCH_DATE":"2020-04-22","RCS_SIZE":"LARGE","GP_ID":"225429223","MEAN_MOTION":"15.06414653","ARG_OF_PERICENTER":"87.9539","ELEMENT_SET_NO":"999","ECCENTRICITY":"0.00013280","FILE":"3792084","BSTAR":"0.00234390000000","CLASSIFICATION_TYPE":"U","TLE_LINE1":"1 45536U 20025F   23045.59481462  .00034818  00000-0  23439-2 0  9992","REF_FRAME":"TEME","OBJECT_NAME":"STARLINK-1352","CENTER_NAME":"EARTH","DECAY_DATE":null,"MEAN_ELEMENT_THEORY":"SGP4","PERIOD":"95.591","OBJECT_TYPE":"PAYLOAD","MEAN_MOTION_DDOT":"0.0000000000000","PERIAPSIS":"546.249","COUNTRY_CODE":"US","TIME_SYSTEM":"UTC","EPHEMERIS_TYPE":"0","INCLINATION":"53.0532"},{"EPOCH":"2023-02-15T02:53:37.419936","NORAD_CAT_ID":"45537","MEAN_MOTION_DOT":"0.01576210","OBJECT_ID":"2020-025G","SEMIMAJOR_AXIS":"6699.680","MEAN_ANOMALY":"303.8520","APOAPSIS":"330.611","TLE_LINE2":"2 45537  52.9576 348.2380 0013533 158.2435 303.8520 15.83148663157268","REV_AT_EPOCH":"15726","BSTAR":"0.00628180000000","FILE":"3792079","ECCENTRICITY":"0.00135330","ARG_OF_PERICENTER":"158.2435","ELEMENT_SET_NO":"999","GP_ID":"225410292","RCS_SIZE":"LARGE","MEAN_MOTION":"15.83148663","LAUNCH_DATE":"2020-04-22","RA_OF_ASC_NODE":"348.2380","SITE":"AFETR","OBJECT_TYPE":"PAYLOAD","MEAN_MOTION_DDOT":"0.0000000000000","PERIOD":"90.958","MEAN_ELEMENT_THEORY":"SGP4","DECAY_DATE":null,"OBJECT_NAME":"STARLINK-1353","REF_FRAME":"TEME","CENTER_NAME":"EARTH","CLASSIFICATION_TYPE":"U","TLE_LINE1":"1 45537U 20025G   23046.12057199  .01576210  00000-0  62818-2 0  9991","INCLINATION":"52.9576","EPHEMERIS_TYPE":"0","TIME_SYSTEM":"UTC","PERIAPSIS":"312.478","COUNTRY_CODE":"US"},{"CENTER_NAME":"EARTH","OBJECT_NAME":"STARLINK-1362","REF_FRAME":"TEME","CLASSIFICATION_TYPE":"U","TLE_LINE1":"1 45538U 20025H   23045.55426758  .00000645  00000-0  62187-4 0  9993","PERIOD":"95.592","OBJECT_TYPE":"PAYLOAD","MEAN_MOTION_DDOT":"0.0000000000000","DECAY_DATE":null,"MEAN_ELEMENT_THEORY":"SGP4","PERIAPSIS":"546.109","COUNTRY_CODE":"US","TIME_SYSTEM":"UTC","INCLINATION":"53.0550","EPHEMERIS_TYPE":"0","MEAN_ANOMALY":"282.9603","APOAPSIS":"548.307","SEMIMAJOR_AXIS":"6925.343","TLE_LINE2":"2 45538  53.0550  90.6127 0001587  77.1563 282.9603 15.06401746155825","REV_AT_EPOCH":"15582","EPOCH":"2023-02-14T13:18:08.718912","NORAD_CAT_ID":"45538","MEAN_MOTION_DOT":"0.00000645","OBJECT_ID":"2020-025H","LAUNCH_DATE":"2020-04-22","GP_ID":"225398640","RCS_SIZE":"LARGE","MEAN_MOTION":"15.06401746","RA_OF_ASC_NODE":"90.6127","SITE":"AFETR","FILE":"3791526","BSTAR":"0.00006218700000","ARG_OF_PERICENTER":"77.1563","ELEMENT_SET_NO":"999","ECCENTRICITY":"0.00015870"},{"MEAN_MOTION_DOT":"0.00000254","OBJECT_ID":"2020-025K","EPOCH":"2023-02-14T09:35:13.304256","NORAD_CAT_ID":"45540","TLE_LINE2":"2 45540  53.0530  91.3170 0002076  86.5130 273.6096 15.06397450155807","REV_AT_EPOCH":"15580","APOAPSIS":"548.659","MEAN_ANOMALY":"273.6096","SEMIMAJOR_AXIS":"6925.356","ELEMENT_SET_NO":"999","ARG_OF_PERICENTER":"86.5130","ECCENTRICITY":"0.00020760","FILE":"3791466","BSTAR":"0.00003595600000","RA_OF_ASC_NODE":"91.3170","SITE":"AFETR","LAUNCH_DATE":"2020-04-22","MEAN_MOTION":"15.06397450","RCS_SIZE":"LARGE","GP_ID":"225397175","DECAY_DATE":null,"MEAN_ELEMENT_THEORY":"SGP4","PERIOD":"95.592","MEAN_MOTION_DDOT":"0.0000000000000","OBJECT_TYPE":"PAYLOAD","TLE_LINE1":"1 45540U 20025K   23045.39945954  .00000254  00000-0  35956-4 0  9992","CLASSIFICATION_TYPE":"U","CENTER_NAME":"EARTH","OBJECT_NAME":"STARLINK-1368","REF_FRAME":"TEME","EPHEMERIS_TYPE":"0","INCLINATION":"53.0530","COUNTRY_CODE":"US","PERIAPSIS":"545.784","TIME_SYSTEM":"UTC"},{"OBJECT_ID":"2020-025L","MEAN_MOTION_DOT":"0.00001177","NORAD_CAT_ID":"45541","EPOCH":"2023-02-14T03:18:22.673088","TLE_LINE2":"2 45541  53.0532  92.4923 0001244  85.5971 274.5160 15.06389051156346","REV_AT_EPOCH":"15634","APOAPSIS":"548.109","MEAN_ANOMALY":"274.5160","SEMIMAJOR_AXIS":"6925.382","ELEMENT_SET_NO":"999","ARG_OF_PERICENTER":"85.5971","ECCENTRICITY":"0.00012440","FILE":"3791349","BSTAR":"0.00009790400000","RA_OF_ASC_NODE":"92.4923","SITE":"AFETR","LAUNCH_DATE":"2020-04-22","MEAN_MOTION":"15.06389051","RCS_SIZE":"LARGE","GP_ID":"225389856","DECAY_DATE":null,"MEAN_ELEMENT_THEORY":"SGP4","PERIOD":"95.593","MEAN_MOTION_DDOT":"0.0000000000000","OBJECT_TYPE":"PAYLOAD","TLE_LINE1":"1 45541U 20025L   23045.13776242  .00001177  00000-0  97904-4 0  9993","CLASSIFICATION_TYPE":"U","OBJECT_NAME":"STARLINK-1369","REF_FRAME":"TEME","CENTER_NAME":"EARTH","EPHEMERIS_TYPE":"0","INCLINATION":"53.0532","COUNTRY_CODE":"US","PERIAPSIS":"546.386","TIME_SYSTEM":"UTC"}];
